[{"OBJECT_NAME":"ASTROCAST-0402","OBJECT_ID":"2023-001DE","EPOCH":"2026-03-09T19:21:31.190400","MEAN_MOTION":15.26734153,"ECCENTRICITY":0.00042092,"INCLINATION":97.5556,"RA_OF_ASC_NODE":160.6821,"ARG_OF_PERICENTER":216.6984,"MEAN_ANOMALY":143.3966,"EPHEMERIS_TYPE":0,"CLASSIFICATION_TYPE":"U","NORAD_CAT_ID":55109,"ELEMENT_SET_NO":999,"REV_AT_EPOCH":12936,"BSTAR":0.00041835119,"MEAN_MOTION_DOT":0.0001093,"MEAN_MOTION_DDOT":0},{"OBJECT_NAME":"STARLINK-31508","OBJECT_ID":"2024-071V","EPOCH":"2026-03-09T04:24:53.648064","MEAN_MOTION":15.27573533,"ECCENTRICITY":0.00015887,"INCLINATION":43,"RA_OF_ASC_NODE":342.998,"ARG_OF_PERICENTER":245.9634,"MEAN_ANOMALY":114.1051,"EPHEMERIS_TYPE":0,"CLASSIFICATION_TYPE":"U","NORAD_CAT_ID":59503,"ELEMENT_SET_NO":999,"REV_AT_EPOCH":10812,"BSTAR":-0.00013500022,"MEAN_MOTION_DOT":-3.974e-5,"MEAN_MOTION_DDOT":0}]
